     2.100          NAVIGATION                              RINEX VERSION / TYPE
fic2rin                                 08/31/2013 00:21:04 PGM / RUN BY / DATE
                                                            END OF HEADER
22 13  8 30  6  0  0.0  .182395335287D-03  .170530256582D-11  .000000000000D+00
     .770000000000D+02 -.237500000000D+01  .556380318331D-08 -.230455569978D+01
    -.219792127609D-06  .680799724068D-02  .654719769955D-05  .515364406204D+04
     .453600000000D+06  .931322574615D-07 -.204962164706D+01 -.745058059692D-08
     .924464662818D+00  .231093750000D+03 -.203455191580D+01 -.841999358367D-08
    -.453590322429D-10  .100000000000D+01  .175500000000D+04  .000000000000D+00
     .340000000000D+01  .000000000000D+00 -.172294676304D-07  .770000000000D+02
     .446406000000D+06  .400000000000D+01
23 13  8 30  6  0  0.0  .528693199158D-04 -.352429196937D-11  .000000000000D+00
     .970000000000D+02  .459687500000D+02  .474234039466D-08  .179245085258D+01
     .253506004810D-05  .888421828859D-02  .883638858795D-05  .515366932106D+04
     .453600000000D+06 -.912696123123D-07 -.990471846934D+00  .175088644028D-06
     .954525808014D+00  .209343750000D+03 -.283351972109D+01 -.811498087867D-08
    -.234295473633D-09  .100000000000D+01  .175500000000D+04  .000000000000D+00
     .240000000000D+01  .000000000000D+00 -.200234353542D-07  .970000000000D+02
     .446406000000D+06  .400000000000D+01
24 13  8 30  6  0  0.0 -.127782113850D-04 -.682121026330D-12  .000000000000D+00
     .560000000000D+02  .610000000000D+02  .470483883257D-08  .109887574287D+01
     .322796404362D-05  .987810082734D-03  .527687370777D-05  .515366569519D+04
     .453600000000D+06  .465661287308D-07  .358947519376D-01 -.335276126862D-07
     .958790903250D+00  .273437500000D+03  .247416558510D+00 -.832963267692D-08
     .607168148133D-11  .100000000000D+01  .175500000000D+04  .000000000000D+00
     .240000000000D+01  .000000000000D+00  .325962901115D-08  .560000000000D+02
     .446406000000D+06  .400000000000D+01
25 13  8 30  6  0  0.0  .141481403261D-03  .443378667114D-11  .000000000000D+00
     .250000000000D+02 -.454375000000D+02  .427874965567D-08 -.107188825439D+01
    -.244751572609D-05  .275198859163D-02  .434741377831D-05  .515373381424D+04
     .453600000000D+06  .128522515297D-06  .108617392446D+01  .465661287308D-07
     .973716341045D+00  .304281250000D+03  .744241077154D+00 -.813569602725D-08
    -.195722438339D-09  .100000000000D+01  .175500000000D+04  .000000000000D+00
     .240000000000D+01  .000000000000D+00  .558793544769D-08  .250000000000D+02
     .446406000000D+06  .400000000000D+01
26 13  8 30  6  0  0.0  .165856443346D-03  .177351466846D-10  .000000000000D+00
     .410000000000D+02  .576875000000D+02  .413231498465D-08  .179631909471D+01
     .263378024101D-05  .210471848259D-01  .951811671257D-05  .515369070625D+04
     .453600000000D+06 -.137835741043D-06 -.907849219633D+00 -.534579157829D-06
     .977791065288D+00  .203625000000D+03  .124984064657D+01 -.769782064513D-08
    -.992898501065D-10  .100000000000D+01  .175500000000D+04  .000000000000D+00
     .240000000000D+01  .000000000000D+00 -.558793544769D-08  .410000000000D+02
     .446406000000D+06  .400000000000D+01
27 13  8 30  6  0  0.0 -.302810221910D-04 -.466116034659D-11  .000000000000D+00
     .390000000000D+02 -.565000000000D+02  .430196490839D-08  .222421260167D+01
    -.289641320705D-05  .413650879636D-03  .830367207527D-05  .515366950035D+04
     .453600000000D+06  .298023223877D-07  .213611487764D+01 -.149011611938D-07
     .960761304685D+00  .220062500000D+03  .934256111037D+00 -.798640409436D-08
     .112861844006D-09  .100000000000D+01  .175500000000D+04  .000000000000D+00
     .240000000000D+01  .000000000000D+00  .186264514923D-08  .390000000000D+02
     .446406000000D+06  .400000000000D+01
28 13  8 30  6  0  0.0  .288349110633D-03  .306954461848D-11  .000000000000D+00
     .260000000000D+02 -.591562500000D+02  .386230373760D-08 -.244093549309D+01
    -.298954546452D-05  .187058047159D-01  .497139990330D-05  .515365242958D+04
     .453600000000D+06  .201165676117D-06  .115007720709D+01  .558793544769D-08
     .984016238146D+00  .293375000000D+03 -.176370020842D+01 -.759995942596D-08
    -.764317551180D-10  .100000000000D+01  .175500000000D+04  .000000000000D+00
     .240000000000D+01  .000000000000D+00 -.107102096081D-07  .260000000000D+02
     .446406000000D+06  .400000000000D+01
30 13  8 30  6  0  0.0  .967178493738D-06  .329691829393D-11  .000000000000D+00
     .460000000000D+02  .678125000000D+02  .417267380861D-08 -.131466416465D+01
     .372529029846D-05  .895740441047D-02  .897049903870D-05  .515368611908D+04
     .453600000000D+06  .186264514923D-08 -.895828685101D+00  .212341547012D-06
     .975968333730D+00  .214718750000D+03 -.179344094383D+01 -.782246869436D-08
    -.114647632677D-09  .100000000000D+01  .175500000000D+04  .000000000000D+00
     .485000000000D+01  .630000000000D+02 -.372529029846D-08  .460000000000D+02
     .446406000000D+06  .400000000000D+01
31 13  8 30  6  0  0.0  .324681401253D-03  .909494701773D-12  .000000000000D+00
     .690000000000D+02  .536562500000D+02  .416017328792D-08  .271187928386D+00
     .269152224064D-05  .789419549983D-02  .573322176933D-05  .515365878105D+04
     .453600000000D+06  .372529029846D-08  .709190310452D-01 -.763684511185D-07
     .980294763269D+00  .281218750000D+03 -.735808312638D+00 -.808997983728D-08
    -.357157734196D-11  .100000000000D+01  .175500000000D+04  .000000000000D+00
     .240000000000D+01  .000000000000D+00 -.130385160446D-07  .690000000000D+02
     .446406000000D+06  .400000000000D+01
32 13  8 30  6  0  0.0 -.552039127797D-03  .238742359215D-11  .000000000000D+00
     .440000000000D+02  .146875000000D+01  .510556981033D-08  .734704006982D+00
     .819563865662D-07  .115917188814D-01  .698864459991D-05  .515360581207D+04
     .453600000000D+06  .245869159698D-06 -.196367686593D+01  .745058059692D-08
     .948594270610D+00  .240625000000D+03 -.309032561407D+00 -.831070331701D-08
    -.146077513286D-09  .100000000000D+01  .175500000000D+04  .000000000000D+00
     .240000000000D+01  .000000000000D+00 -.279396772385D-08  .440000000000D+02
     .446406000000D+06  .400000000000D+01
10 13  8 30  5 59 44.0 -.925897620618D-04 -.147792889038D-11  .000000000000D+00
     .400000000000D+02  .256250000000D+01  .512092759290D-08 -.217495632988D+01
    -.165775418282D-06  .126765567111D-01  .695139169693D-05  .515365140724D+04
     .453584000000D+06  .180676579475D-06 -.203369860593D+01 -.875443220139D-07
     .942928301114D+00  .232593750000D+03  .812854116282D+00 -.810355183117D-08
     .714315468392D-12  .100000000000D+01  .175500000000D+04  .000000000000D+00
     .240000000000D+01  .000000000000D+00 -.232830643654D-08  .400000000000D+02
     .447936000000D+06  .400000000000D+01
 8 13  8 30  5 59 44.0  .816164538264D-05  .113686837722D-12  .000000000000D+00
     .600000000000D+01  .426250000000D+02  .383551690753D-08 -.339492815524D+00
     .213459134102D-05  .133758807788D-01  .486522912979D-05  .515369797325D+04
     .453584000000D+06  .176951289177D-06  .159289633178D+00  .689178705215D-07
     .998187271032D+00  .303218750000D+03 -.284562776592D+01 -.800497629654D-08
    -.389301930274D-10  .100000000000D+01  .175500000000D+04  .000000000000D+00
     .240000000000D+01  .000000000000D+00 -.372529029846D-08  .600000000000D+01
     .449256000000D+06  .400000000000D+01
 8 13  8 30  7 59 44.0  .816257670522D-05  .113686837722D-12  .000000000000D+00
     .180000000000D+02  .492812500000D+02  .384480300862D-08  .710632529703D+00
     .270083546638D-05  .133764413185D-01  .485405325890D-05  .515369921684D+04
     .460784000000D+06  .633299350739D-07  .159232425767D+00  .167638063431D-06
     .998187069149D+00  .301218750000D+03 -.284559197270D+01 -.794211653532D-08
    -.996470078407D-10  .100000000000D+01  .175500000000D+04  .000000000000D+00
     .240000000000D+01  .000000000000D+00 -.372529029846D-08  .180000000000D+02
     .453606000000D+06  .400000000000D+01
10 13  8 30  7 59 44.0 -.926004722714D-04 -.147792889038D-11  .000000000000D+00
     .410000000000D+02  .159375000000D+01  .511449875369D-08 -.112475165938D+01
     .247731804848D-06  .126768421615D-01  .670179724693D-05  .515365149117D+04
     .460784000000D+06  .286847352982D-06 -.203375652578D+01  .167638063431D-06
     .942927397031D+00  .236843750000D+03  .812848021766D+00 -.828963101069D-08
    -.114290474943D-09  .100000000000D+01  .175500000000D+04  .000000000000D+00
     .240000000000D+01  .000000000000D+00 -.232830643654D-08  .410000000000D+02
     .453606000000D+06  .400000000000D+01
 1 13  8 30  8  0  0.0  .690561719239D-04  .432009983342D-11  .000000000000D+00
     .200000000000D+02  .315625000000D+01  .454304637897D-08  .187134598071D+01
     .119209289551D-06  .227597507183D-02  .798329710960D-05  .515369174194D+04
     .460800000000D+06 -.745058059692D-08 -.309455571776D+01  .465661287308D-07
     .960785375539D+00  .224062500000D+03  .345140501470D+00 -.803783480808D-08
     .285369029623D-09  .100000000000D+01  .175500000000D+04  .000000000000D+00
     .240000000000D+01  .000000000000D+00  .838190317154D-08  .200000000000D+02
     .453606000000D+06  .400000000000D+01
 2 13  8 30  8  0  0.0  .448942184448D-03  .181898940355D-11  .000000000000D+00
     .170000000000D+02 -.209375000000D+01  .492520515456D-08  .266985878336D+01
    -.745058059692D-07  .125462834258D-01  .788271427155D-05  .515371405792D+04
     .460800000000D+06 -.987201929092D-07 -.311826200827D+01 -.180676579475D-06
     .939294541342D+00  .213812500000D+03 -.256392143899D+01 -.803604901941D-08
     .343585740297D-09  .100000000000D+01  .175500000000D+04  .000000000000D+00
     .240000000000D+01  .000000000000D+00 -.172294676304D-07  .170000000000D+02
     .453606000000D+06  .400000000000D+01
